NORAD_CAT_ID,OBJECT_NAME,OBJECT_TYPE,EPOCH,MEAN_MOTION,ECCENTRICITY,INCLINATION,RA_OF_ASC_NODE,ARG_OF_PERICENTER,MEAN_ANOMALY,BSTAR,MEAN_MOTION_DOT,MEAN_MOTION_DDOT,TLE_LINE0,TLE_LINE1,TLE_LINE2,SEMIMAJOR_AXIS,PERIOD,APOGEE,PERIGEE,DECAYED
49422.0,STARLINK-3161,PAYLOAD,2024-07-27 19:02:46,15.08821787,0.0002557,53.2244,357.5876,79.1724,280.9556,-2.8184e-05,-7.37e-06,0.0,0 STARLINK-3161,1 49422U 21104Q   24209.79358856 -.00000737  00000-0 -28184-4 0  9993,2 49422  53.2244 357.5876 0002557  79.1724 280.9556 15.08821787149560,6917.936,95.439,541.57,538.032,0.0
49422.0,STARLINK-3161,PAYLOAD,2024-07-28 02:59:42,15.08830339,0.0004586,53.2197,356.0999,80.1267,280.0242,-1.7158e-07,-2.92e-06,0.0,0 STARLINK-3161,1 49422U 21104Q   24210.12479335 -.00000292  00000-0 -17158-6 0  9995,2 49422  53.2197 356.0999 0004586  80.1267 280.0242 15.08830339150721,6917.91,95.438,542.947,536.602,0.0
49422.0,STARLINK-3161,PAYLOAD,2024-07-28 17:18:08,15.08848603,0.0001096,53.2184,353.425,81.8428,278.2688,-7.1117e-05,-1.42e-05,0.0,0 STARLINK-3161,1 49422U 21104Q   24210.72093138 -.00001420  00000-0 -71117-4 0  9991,2 49422  53.2184 353.4250 0001096  81.8428 278.2688 15.08848603150814,6917.854,95.437,540.477,538.961,0.0
49422.0,STARLINK-3161,PAYLOAD,2024-07-29 02:50:26,15.08859132,0.0001176,53.2185,351.6415,87.5156,272.5971,5.7513e-05,6.28e-06,0.0,0 STARLINK-3161,1 49422U 21104Q   24211.11836159  .00000628  00000-0  57513-4 0  9994,2 49422  53.2185 351.6415 0001176  87.5156 272.5971 15.08859132150875,6917.822,95.436,540.5,538.873,0.0
49422.0,STARLINK-3161,PAYLOAD,2024-07-29 18:44:18,15.08846066,0.0001525,53.2193,348.6665,92.8535,267.2632,0.00016425,2.327e-05,0.0,0 STARLINK-3161,1 49422U 21104Q   24211.78076976  .00002327  00000-0  16425-3 0  9994,2 49422  53.2193 348.6665 0001525  92.8535 267.2632 15.08846066150973,6917.862,95.437,540.782,538.672,0.0
49422.0,STARLINK-3161,PAYLOAD,2024-07-30 02:41:13,15.08853418,0.0001479,53.2186,347.1787,96.8524,263.2636,0.00021354,3.113e-05,0.0,0 STARLINK-3161,1 49422U 21104Q   24212.11196259  .00003113  00000-0  21354-3 0  9990,2 49422  53.2186 347.1787 0001479  96.8524 263.2636 15.08853418151020,6917.839,95.437,540.728,538.681,0.0
49422.0,STARLINK-3161,PAYLOAD,2024-07-30 15:24:18,15.08850877,0.0002075,53.217,344.8003,91.6887,268.4343,0.00019193,2.769e-05,0.0,0 STARLINK-3161,1 49422U 21104Q   24212.64188393  .00002769  00000-0  19193-3 0  9992,2 49422  53.2170 344.8003 0002075  91.6887 268.4343 15.08850877151103,6917.847,95.437,541.148,538.277,0.0
49422.0,STARLINK-3161,PAYLOAD,2024-07-31 13:39:43,15.08837461,0.0001098,53.218,340.6397,85.708,274.4037,2.8189e-05,1.61e-06,0.0,0 STARLINK-3161,1 49422U 21104Q   24213.56925452  .00000161  00000-0  28189-4 0  9999,2 49422  53.2180 340.6397 0001098  85.7080 274.4037 15.08837461151243,6917.888,95.438,540.513,538.994,0.0
49422.0,STARLINK-3161,PAYLOAD,2024-07-31 15:15:06,15.08836433,0.0001351,53.218,340.3394,99.3412,260.7733,-2.2937e-05,-6.53e-06,0.0,0 STARLINK-3161,1 49422U 21104Q   24213.63549610 -.00000653  00000-0 -22937-4 0  9998,2 49422  53.2180 340.3394 0001351  99.3412 260.7733 15.08836433150146,6917.891,95.438,540.691,538.822,0.0
49422.0,STARLINK-3161,PAYLOAD,2024-07-31 18:25:53,15.08843867,0.0001002,53.2179,339.7457,103.1398,256.9706,-0.00016539,-2.919e-05,0.0,0 STARLINK-3161,1 49422U 21104Q   24213.76797530 -.00002919  00000-0 -16539-3 0  9995,2 49422  53.2179 339.7457 0001002 103.1398 256.9706 15.08843867150164,6917.869,95.437,540.427,539.04,0.0
49422.0,STARLINK-3161,PAYLOAD,2024-08-01 11:55:07,15.08839067,0.0001287,53.2173,336.4769,87.6376,272.4763,8.7373e-05,1.103e-05,0.0,0 STARLINK-3161,1 49422U 21104Q   24214.49661285  .00001103  00000-0  87373-4 0  9990,2 49422  53.2173 336.4769 0001287  87.6376 272.4763 15.08839067150270,6917.883,95.438,540.639,538.858,0.0
49422.0,STARLINK-3161,PAYLOAD,2024-08-02 00:38:10,15.08862681,8.33e-05,53.2182,334.0989,91.2462,268.8626,0.00031142,4.675e-05,0.0,0 STARLINK-3161,1 49422U 21104Q   24215.02650889  .00004675  00000-0  31142-3 0  9997,2 49422  53.2182 334.0989 0000833  91.2462 268.8626 15.08862681151468,6917.811,95.436,540.252,539.1,0.0
49422.0,STARLINK-3161,PAYLOAD,2024-08-02 13:21:18,15.08816925,0.0001628,53.2183,331.7195,99.7682,260.3494,-0.00012826,-2.327e-05,0.0,0 STARLINK-3161,1 49422U 21104Q   24215.55646665 -.00002327  00000-0 -12826-3 0  9994,2 49422  53.2183 331.7195 0001628  99.7682 260.3494 15.08816925151541,6917.951,95.439,540.942,538.69,0.0
49422.0,STARLINK-3161,PAYLOAD,2024-08-02 14:56:41,15.08823077,0.0001294,53.2167,331.4208,95.7158,264.3982,-6.6731e-05,-1.349e-05,0.0,0 STARLINK-3161,1 49422U 21104Q   24215.62270367 -.00001349  00000-0 -66731-4 0  9992,2 49422  53.2167 331.4208 0001294  95.7158 264.3982 15.08823077150448,6917.932,95.439,540.692,538.902,0.0
49422.0,STARLINK-3161,PAYLOAD,2024-08-03 00:28:59,15.08838721,0.0001391,53.2179,329.6343,93.6159,266.4992,0.00015781,2.224e-05,0.0,0 STARLINK-3161,1 49422U 21104Q   24216.02013856  .00002224  00000-0  15781-3 0  9994,2 49422  53.2179 329.6343 0001391  93.6159 266.4992 15.08838721151612,6917.884,95.438,540.712,538.787,0.0
49422.0,STARLINK-3161,PAYLOAD,2024-08-03 14:47:28,15.0884347,0.0001506,53.2169,326.9635,109.6007,250.5148,0.00025973,3.848e-05,0.0,0 STARLINK-3161,1 49422U 21104Q   24216.61629681  .00003848  00000-0  25973-3 0  9995,2 49422  53.2169 326.9635 0001506 109.6007 250.5148 15.08843470150593,6917.87,95.437,540.777,538.693,0.0
49422.0,STARLINK-3161,PAYLOAD,2024-08-04 13:02:52,15.08845065,0.0001315,53.2172,322.7991,91.6404,268.4739,0.00028953,4.324e-05,0.0,0 STARLINK-3161,1 49422U 21104Q   24217.54365913  .00004324  00000-0  28953-3 0  9994,2 49422  53.2172 322.7991 0001315  91.6404 268.4739 15.08845065151840,6917.865,95.437,540.64,538.82,0.0
49422.0,STARLINK-3161,PAYLOAD,2024-08-04 14:38:15,15.08846465,0.0001442,53.2172,322.5023,88.0462,272.0695,0.0003612,5.466e-05,0.0,0 STARLINK-3161,1 49422U 21104Q   24217.60989884  .00005466  00000-0  36120-3 0  9993,2 49422  53.2172 322.5023 0001442  88.0462 272.0695 15.08846465150744,6917.861,95.437,540.723,538.728,0.0
49422.0,STARLINK-3161,PAYLOAD,2024-08-05 12:53:38,15.08837881,0.000137,53.2147,318.337,86.126,273.9889,-9.8394e-05,-1.853e-05,0.0,0 STARLINK-3161,1 49422U 21104Q   24218.53725465 -.00001853  00000-0 -98394-4 0  9999,2 49422  53.2147 318.3370 0001370  86.1260 273.9889 15.08837881151994,6917.887,95.438,540.7,538.804,0.0
49422.0,STARLINK-3161,PAYLOAD,2024-08-05 14:29:01,15.08847105,0.000142,53.2171,318.0414,82.021,278.0943,7.0215e-05,8.3e-06,0.0,0 STARLINK-3161,1 49422U 21104Q   24218.60349140  .00000830  00000-0  70215-4 0  9993,2 49422  53.2171 318.0414 0001420  82.0210 278.0943 15.08847105152003,6917.859,95.437,540.706,538.741,0.0
49422.0,STARLINK-3161,PAYLOAD,2024-08-06 12:44:26,15.0881889,0.0001367,53.2152,313.8776,94.3202,265.7947,-0.00031197,-5.247e-05,0.0,0 STARLINK-3161,1 49422U 21104Q   24219.53086114 -.00005247  00000-0 -31197-3 0  9999,2 49422  53.2152 313.8776 0001367  94.3202 265.7947 15.08818890152144,6917.945,95.439,540.756,538.864,0.0
49422.0,STARLINK-3161,PAYLOAD,2024-08-07 12:35:13,15.08855812,0.000147,53.2167,309.4173,92.2852,267.8309,0.0011148,0.00017506,0.0,0 STARLINK-3161,1 49422U 21104Q   24220.52446242  .00017506  00000-0  11148-2 0  9994,2 49422  53.2167 309.4173 0001470  92.2852 267.8309 15.08855812152291,6917.832,95.437,540.714,538.68,0.0
49422.0,STARLINK-3161,PAYLOAD,2024-08-08 12:25:59,15.0885094,0.0001425,53.2168,304.9554,97.6052,262.5102,0.0003129,4.697e-05,0.0,0 STARLINK-3161,1 49422U 21104Q   24221.51805503  .00004697  00000-0  31290-3 0  9991,2 49422  53.2168 304.9554 0001425  97.6052 262.5102 15.08850940151330,6917.847,95.437,540.698,538.726,0.0
49422.0,STARLINK-3161,PAYLOAD,2024-08-09 05:55:14,15.08848255,0.0001505,53.2159,301.6852,89.2139,270.9025,0.00072221,0.00011227,0.0,0 STARLINK-3161,1 49422U 21104Q   24222.24669778  .00011227  00000-0  72221-3 0  9990,2 49422  53.2159 301.6852 0001505  89.2139 270.9025 15.08848255152555,6917.855,95.437,540.761,538.679,0.0
49422.0,STARLINK-3161,PAYLOAD,2024-08-09 12:16:47,15.08843703,0.0001336,53.2159,300.4964,75.7382,284.3758,9.2769e-05,1.189e-05,0.0,0 STARLINK-3161,1 49422U 21104Q   24222.51165741  .00001189  00000-0  92769-4 0  9997,2 49422  53.2159 300.4964 0001336  75.7382 284.3758 15.08843703151484,6917.869,95.437,540.658,538.81,0.0
49422.0,STARLINK-3161,PAYLOAD,2024-08-09 15:27:33,15.08846006,0.0001357,53.2162,299.8986,68.0739,292.0397,0.00017971,2.574e-05,0.0,0 STARLINK-3161,1 49422U 21104Q   24222.64413644  .00002574  00000-0  17971-3 0  9999,2 49422  53.2162 299.8986 0001357  68.0739 292.0397 15.08846006152617,6917.862,95.437,540.666,538.788,0.0
49422.0,STARLINK-3161,PAYLOAD,2024-08-10 10:32:11,15.08831416,0.0001194,53.2158,296.3305,93.5136,266.5993,-6.7957e-05,-1.369e-05,0.0,0 STARLINK-3161,1 49422U 21104Q   24223.43902218 -.00001369  00000-0 -67957-4 0  9990,2 49422  53.2158 296.3305 0001194  93.5136 266.5993 15.08831416152732,6917.907,95.438,540.598,538.946,0.0
49422.0,STARLINK-3161,PAYLOAD,2024-08-10 13:42:57,15.08834376,0.0001358,53.2164,295.7353,95.4699,264.6448,2.7876e-05,1.56e-06,0.0,0 STARLINK-3161,1 49422U 21104Q   24223.57150253  .00000156  00000-0  27876-4 0  9996,2 49422  53.2164 295.7353 0001358  95.4699 264.6448 15.08834376151643,6917.898,95.438,540.702,538.823,0.0
49422.0,STARLINK-3161,PAYLOAD,2024-08-10 21:39:52,15.08853099,0.0001075,53.216,294.2525,91.7385,268.373,0.00032212,4.844e-05,0.0,0 STARLINK-3161,1 49422U 21104Q   24223.90269380  .00004844  00000-0  32212-3 0  9992,2 49422  53.2160 294.2525 0001075  91.7385 268.3730 15.08853099152808,6917.84,95.437,540.449,538.962,0.0
49422.0,STARLINK-3161,PAYLOAD,2024-08-11 10:22:59,15.0882594,0.0002009,53.2169,291.875,94.6534,265.4688,-8.1012e-05,-1.577e-05,0.0,0 STARLINK-3161,1 49422U 21104Q   24224.43263124 -.00001577  00000-0 -81012-4 0  9996,2 49422  53.2169 291.8750 0002009  94.6534 265.4688 15.08825940152888,6917.923,95.438,541.178,538.399,0.0
